[{"OBJECT_NAME":"ONEWEB-0161","OBJECT_ID":"2021-025M","EPOCH":"2025-12-29T12:30:52.677792","MEAN_MOTION":13.13468249,"ECCENTRICITY":0.0001607,"INCLINATION":87.8981,"RA_OF_ASC_NODE":353.9433,"ARG_OF_PERICENTER":91.436,"MEAN_ANOMALY":268.6954,"EPHEMERIS_TYPE":0,"CLASSIFICATION_TYPE":"U","NORAD_CAT_ID":48053,"ELEMENT_SET_NO":999,"REV_AT_EPOCH":23123,"BSTAR":0.00044528,"MEAN_MOTION_DOT":1.75e-6,"MEAN_MOTION_DDOT":0},{"OBJECT_NAME":"ONEWEB-0158","OBJECT_ID":"2021-025N","EPOCH":"2025-12-29T11:32:21.960672","MEAN_MOTION":13.13469215,"ECCENTRICITY":0.0001953,"INCLINATION":87.8986,"RA_OF_ASC_NODE":353.9367,"ARG_OF_PERICENTER":79.3051,"MEAN_ANOMALY":280.8298,"EPHEMERIS_TYPE":0,"CLASSIFICATION_TYPE":"U","NORAD_CAT_ID":48054,"ELEMENT_SET_NO":999,"REV_AT_EPOCH":23135,"BSTAR":-0.00046456,"MEAN_MOTION_DOT":-1.57e-6,"MEAN_MOTION_DDOT":0},{"OBJECT_NAME":"ONEWEB-0157","OBJECT_ID":"2021-025P","EPOCH":"2025-12-29T10:19:14.621376","MEAN_MOTION":13.13468996,"ECCENTRICITY":0.0001376,"INCLINATION":87.8987,"RA_OF_ASC_NODE":353.9526,"ARG_OF_PERICENTER":93.4906,"MEAN_ANOMALY":266.638,"EPHEMERIS_TYPE":0,"CLASSIFICATION_TYPE":"U","NORAD_CAT_ID":48055,"ELEMENT_SET_NO":999,"REV_AT_EPOCH":23128,"BSTAR":0.0010437,"MEAN_MOTION_DOT":3.94e-6,"MEAN_MOTION_DDOT":0},{"OBJECT_NAME":"ONEWEB-0162","OBJECT_ID":"2021-025Q","EPOCH":"2025-12-29T11:34:36.590016","MEAN_MOTION":13.13469638,"ECCENTRICITY":0.0001819,"INCLINATION":87.8985,"RA_OF_ASC_NODE":353.9448,"ARG_OF_PERICENTER":93.1557,"MEAN_ANOMALY":266.978,"EPHEMERIS_TYPE":0,"CLASSIFICATION_TYPE":"U","NORAD_CAT_ID":48056,"ELEMENT_SET_NO":999,"REV_AT_EPOCH":23126,"BSTAR":-0.00032609,"MEAN_MOTION_DOT":-1.06e-6,"MEAN_MOTION_DDOT":0},{"OBJECT_NAME":"ONEWEB-0155","OBJECT_ID":"2021-025R","EPOCH":"2025-12-29T11:44:33.532800","MEAN_MOTION":13.13469974,"ECCENTRICITY":0.0001576,"INCLINATION":87.8986,"RA_OF_ASC_NODE":353.9478,"ARG_OF_PERICENTER":84.631,"MEAN_ANOMALY":275.4999,"EPHEMERIS_TYPE":0,"CLASSIFICATION_TYPE":"U","NORAD_CAT_ID":48057,"ELEMENT_SET_NO":999,"REV_AT_EPOCH":23140,"BSTAR":0.00025719,"MEAN_MOTION_DOT":1.07e-6,"MEAN_MOTION_DDOT":0},{"OBJECT_NAME":"ONEWEB-0149","OBJECT_ID":"2021-025S","EPOCH":"2025-12-29T10:26:33.048672","MEAN_MOTION":13.13467862,"ECCENTRICITY":0.0001849,"INCLINATION":87.8986,"RA_OF_ASC_NODE":353.9524,"ARG_OF_PERICENTER":93.4982,"MEAN_ANOMALY":266.6359,"EPHEMERIS_TYPE":0,"CLASSIFICATION_TYPE":"U","NORAD_CAT_ID":48058,"ELEMENT_SET_NO":999,"REV_AT_EPOCH":23120,"BSTAR":0.00095407,"MEAN_MOTION_DOT":3.61e-6,"MEAN_MOTION_DDOT":0},{"OBJECT_NAME":"ONEWEB-0148","OBJECT_ID":"2021-025T","EPOCH":"2025-12-29T11:22:36.653376","MEAN_MOTION":13.13468792,"ECCENTRICITY":0.0001868,"INCLINATION":87.8977,"RA_OF_ASC_NODE":353.9637,"ARG_OF_PERICENTER":107.7058,"MEAN_ANOMALY":252.4275,"EPHEMERIS_TYPE":0,"CLASSIFICATION_TYPE":"U","NORAD_CAT_ID":48059,"ELEMENT_SET_NO":999,"REV_AT_EPOCH":23133,"BSTAR":-0.00065429,"MEAN_MOTION_DOT":-2.26e-6,"MEAN_MOTION_DDOT":0},{"OBJECT_NAME":"ONEWEB-0160","OBJECT_ID":"2021-025U","EPOCH":"2025-12-28T22:59:07.776096","MEAN_MOTION":13.13469667,"ECCENTRICITY":0.00024705,"INCLINATION":87.8975,"RA_OF_ASC_NODE":354.0635,"ARG_OF_PERICENTER":77.5184,"MEAN_ANOMALY":282.6222,"EPHEMERIS_TYPE":0,"CLASSIFICATION_TYPE":"U","NORAD_CAT_ID":48060,"ELEMENT_SET_NO":999,"REV_AT_EPOCH":23121,"BSTAR":0.0002589004,"MEAN_MOTION_DOT":1.07e-6,"MEAN_MOTION_DDOT":0},{"OBJECT_NAME":"ONEWEB-0163","OBJECT_ID":"2021-025V","EPOCH":"2025-12-29T09:35:22.096320","MEAN_MOTION":13.13470062,"ECCENTRICITY":0.0001456,"INCLINATION":87.8985,"RA_OF_ASC_NODE":353.9631,"ARG_OF_PERICENTER":90.3474,"MEAN_ANOMALY":269.7822,"EPHEMERIS_TYPE":0,"CLASSIFICATION_TYPE":"U","NORAD_CAT_ID":48061,"ELEMENT_SET_NO":999,"REV_AT_EPOCH":23139,"BSTAR":-0.00068038,"MEAN_MOTION_DOT":-2.36e-6,"MEAN_MOTION_DDOT":0},{"OBJECT_NAME":"ONEWEB-0159","OBJECT_ID":"2021-025W","EPOCH":"2025-12-29T11:12:51.417792","MEAN_MOTION":13.134682,"ECCENTRICITY":0.0001601,"INCLINATION":87.8989,"RA_OF_ASC_NODE":353.9337,"ARG_OF_PERICENTER":93.6753,"MEAN_ANOMALY":266.456,"EPHEMERIS_TYPE":0,"CLASSIFICATION_TYPE":"U","NORAD_CAT_ID":48062,"ELEMENT_SET_NO":999,"REV_AT_EPOCH":23132,"BSTAR":-0.00063082,"MEAN_MOTION_DOT":-2.18e-6,"MEAN_MOTION_DDOT":0},{"OBJECT_NAME":"ONEWEB-0164","OBJECT_ID":"2021-025X","EPOCH":"2025-12-29T08:56:21.847776","MEAN_MOTION":13.13469479,"ECCENTRICITY":0.0001791,"INCLINATION":87.8989,"RA_OF_ASC_NODE":353.9589,"ARG_OF_PERICENTER":84.9007,"MEAN_ANOMALY":275.2326,"EPHEMERIS_TYPE":0,"CLASSIFICATION_TYPE":"U","NORAD_CAT_ID":48063,"ELEMENT_SET_NO":999,"REV_AT_EPOCH":23129,"BSTAR":5.8845e-5,"MEAN_MOTION_DOT":3.4e-7,"MEAN_MOTION_DDOT":0},{"OBJECT_NAME":"ONEWEB-0167","OBJECT_ID":"2021-025Y","EPOCH":"2025-12-29T09:36:35.646048","MEAN_MOTION":13.13470758,"ECCENTRICITY":0.0001197,"INCLINATION":87.8976,"RA_OF_ASC_NODE":353.9796,"ARG_OF_PERICENTER":68.4294,"MEAN_ANOMALY":291.6962,"EPHEMERIS_TYPE":0,"CLASSIFICATION_TYPE":"U","NORAD_CAT_ID":48064,"ELEMENT_SET_NO":999,"REV_AT_EPOCH":23128,"BSTAR":-0.00068493,"MEAN_MOTION_DOT":-2.37e-6,"MEAN_MOTION_DDOT":0},{"OBJECT_NAME":"ONEWEB-0166","OBJECT_ID":"2021-025Z","EPOCH":"2025-12-29T10:09:29.340000","MEAN_MOTION":13.13469256,"ECCENTRICITY":0.000173,"INCLINATION":87.8986,"RA_OF_ASC_NODE":353.9325,"ARG_OF_PERICENTER":94.0058,"MEAN_ANOMALY":266.1269,"EPHEMERIS_TYPE":0,"CLASSIFICATION_TYPE":"U","NORAD_CAT_ID":48065,"ELEMENT_SET_NO":999,"REV_AT_EPOCH":23136,"BSTAR":0.0010454,"MEAN_MOTION_DOT":3.95e-6,"MEAN_MOTION_DDOT":0},{"OBJECT_NAME":"ONEWEB-0151","OBJECT_ID":"2021-025AA","EPOCH":"2025-12-29T12:01:37.655328","MEAN_MOTION":13.13468681,"ECCENTRICITY":0.0001659,"INCLINATION":87.8987,"RA_OF_ASC_NODE":353.9436,"ARG_OF_PERICENTER":83.0646,"MEAN_ANOMALY":277.0672,"EPHEMERIS_TYPE":0,"CLASSIFICATION_TYPE":"U","NORAD_CAT_ID":48066,"ELEMENT_SET_NO":999,"REV_AT_EPOCH":23131,"BSTAR":0.00080864,"MEAN_MOTION_DOT":3.08e-6,"MEAN_MOTION_DDOT":0},{"OBJECT_NAME":"ONEWEB-0170","OBJECT_ID":"2021-025AB","EPOCH":"2025-12-29T12:13:48.557856","MEAN_MOTION":13.13468429,"ECCENTRICITY":0.0001947,"INCLINATION":87.8983,"RA_OF_ASC_NODE":353.946,"ARG_OF_PERICENTER":73.8103,"MEAN_ANOMALY":286.324,"EPHEMERIS_TYPE":0,"CLASSIFICATION_TYPE":"U","NORAD_CAT_ID":48067,"ELEMENT_SET_NO":999,"REV_AT_EPOCH":23127,"BSTAR":0.0010026,"MEAN_MOTION_DOT":3.79e-6,"MEAN_MOTION_DDOT":0},{"OBJECT_NAME":"ONEWEB-0168","OBJECT_ID":"2021-025AC","EPOCH":"2025-12-29T11:51:52.321248","MEAN_MOTION":13.13469068,"ECCENTRICITY":0.0001602,"INCLINATION":87.8987,"RA_OF_ASC_NODE":353.9352,"ARG_OF_PERICENTER":90.9405,"MEAN_ANOMALY":269.1908,"EPHEMERIS_TYPE":0,"CLASSIFICATION_TYPE":"U","NORAD_CAT_ID":48068,"ELEMENT_SET_NO":999,"REV_AT_EPOCH":23128,"BSTAR":0.00047581,"MEAN_MOTION_DOT":1.87e-6,"MEAN_MOTION_DDOT":0},{"OBJECT_NAME":"ONEWEB-0173","OBJECT_ID":"2021-025AD","EPOCH":"2025-12-29T09:49:59.077056","MEAN_MOTION":13.13469648,"ECCENTRICITY":0.0001342,"INCLINATION":87.8988,"RA_OF_ASC_NODE":353.9598,"ARG_OF_PERICENTER":87.3516,"MEAN_ANOMALY":272.7767,"EPHEMERIS_TYPE":0,"CLASSIFICATION_TYPE":"U","NORAD_CAT_ID":48069,"ELEMENT_SET_NO":999,"REV_AT_EPOCH":23151,"BSTAR":-7.3845e-5,"MEAN_MOTION_DOT":-1.4e-7,"MEAN_MOTION_DDOT":0}]
