ONEWEB-0161             
1 48053U 21025M   25363.52144303  .00000175  00000+0  44528-3 0  9999
2 48053  87.8981 353.9433 0001607  91.4360 268.6954 13.13468249231232
ONEWEB-0158             
1 48054U 21025N   25363.48080973 -.00000157  00000+0 -46456-3 0  9991
2 48054  87.8986 353.9367 0001953  79.3051 280.8298 13.13469215231354
ONEWEB-0157             
1 48055U 21025P   25363.43003034  .00000394  00000+0  10437-2 0  9990
2 48055  87.8987 353.9526 0001376  93.4906 266.6380 13.13468996231289
ONEWEB-0162             
1 48056U 21025Q   25363.48236794 -.00000106  00000+0 -32609-3 0  9996
2 48056  87.8985 353.9448 0001819  93.1557 266.9780 13.13469638231261
ONEWEB-0155             
1 48057U 21025R   25363.48927700  .00000107  00000+0  25719-3 0  9994
2 48057  87.8986 353.9478 0001576  84.6310 275.4999 13.13469974231404
ONEWEB-0149             
1 48058U 21025S   25363.43510473  .00000361  00000+0  95407-3 0  9998
2 48058  87.8986 353.9524 0001849  93.4982 266.6359 13.13467862231207
ONEWEB-0148             
1 48059U 21025T   25363.47403534 -.00000226  00000+0 -65429-3 0  9995
2 48059  87.8977 353.9637 0001868 107.7058 252.4275 13.13468792231334
ONEWEB-0160             
1 48060U 21025U   25362.95772889  .00000107  00000+0  25890-3 0  9995
2 48060  87.8975 354.0635 0002470  77.5184 282.6222 13.13469667231214
ONEWEB-0163             
1 48061U 21025V   25363.39956130 -.00000236  00000+0 -68038-3 0  9994
2 48061  87.8985 353.9631 0001456  90.3474 269.7822 13.13470062231390
ONEWEB-0159             
1 48062U 21025W   25363.46726178 -.00000218  00000+0 -63082-3 0  9994
2 48062  87.8989 353.9337 0001601  93.6753 266.4560 13.13468200231323
ONEWEB-0164             
1 48063U 21025X   25363.37247509  .00000034  00000+0  58845-4 0  9997
2 48063  87.8989 353.9589 0001791  84.9007 275.2326 13.13469479231291
ONEWEB-0167             
1 48064U 21025Y   25363.40041257 -.00000237  00000+0 -68493-3 0  9990
2 48064  87.8976 353.9796 0001197  68.4294 291.6962 13.13470758231282
ONEWEB-0166             
1 48065U 21025Z   25363.42325625  .00000395  00000+0  10454-2 0  9993
2 48065  87.8986 353.9325 0001730  94.0058 266.1269 13.13469256231365
ONEWEB-0151             
1 48066U 21025AA  25363.50113027  .00000308  00000+0  80864-3 0  9991
2 48066  87.8987 353.9436 0001659  83.0646 277.0672 13.13468681231316
ONEWEB-0170             
1 48067U 21025AB  25363.50958979  .00000379  00000+0  10026-2 0  9995
2 48067  87.8983 353.9460 0001947  73.8103 286.3240 13.13468429231274
ONEWEB-0168             
1 48068U 21025AC  25363.49435557  .00000187  00000+0  47581-3 0  9990
2 48068  87.8987 353.9352 0001602  90.9405 269.1908 13.13469068231283
ONEWEB-0173             
1 48069U 21025AD  25363.40971154 -.00000014  00000+0 -73845-4 0  9994
2 48069  87.8988 353.9598 0001342  87.3516 272.7767 13.13469648231514
